75D/Kohoutek,e,5.9270,269.5529,175.5926,3.536526,0.1481968,0.49953373,239.2973,08/10.0/2025,2000,g  9.5,6.0
# From MPEC 2022-K19
76P/West-Kohoutek-Ikemura,e,30.4884,84.1107,0.0104,3.467131,0.1526682,0.53946014,322.3583,08/10.0/2025,2000,g  8.0,12.0
# From MPEC 2025-OF9
77P/Longmore,e,24.3263,14.7490,196.6118,3.620214,0.1430878,0.35182982,123.0808,08/10.0/2025,2000,g  7.0,8.0
# From MPEC 2025-PB3
78P/Gehrels,e,6.2571,210.5019,192.7644,3.733459,0.1366271,0.46304643,316.4101,08/10.0/2025,2000,g  5.5,8.0
# From MPEC 2024-PC5
79P/duToit-Hartley,e,3.1488,280.5041,281.7535,2.942448,0.1952724,0.61936750,132.7193,08/10.0/2025,2000,g 16.0,4.0
# From MPEC 2024-Q20
80P/Peters-Hartley,e,29.9269,259.7725,339.2682,4.021514,0.1222136,0.59768374,119.2671,08/10.0/2025,2000,g  9.0,8.0
# From MPEC 2024-RQ6
81P/Wild,e,3.2383,136.1002,41.5477,3.451423,0.1537116,0.53769458,148.8158,08/10.0/2025,2000,g  7.0,6.0
# From MPC133426
82P/Gehrels,e,1.1294,239.2153,226.4573,4.132346,0.1173300,0.12294231,305.7016,08/10.0/2025,2000,g 15.0,4.0
# From NK 932
83D/Russell,e,17.8315,226.2958,334.3721,3.843226,0.1308158,0.44148271,201.6437,08/10.0/2025,2000,g  9.0,4.0
# From MPEC 2020-FB5
84P/Giclas,e,7.5529,108.1412,281.6841,3.550100,0.1473477,0.51569444,278.7196,08/10.0/2025,2000,g  9.5,8.0
# From unp
85D/Boethin,e,4.1726,65.2992,333.0902,5.046553,0.0869384,0.77582490,159.6767,08/10.0/2025,2000,g  6.5,8.0
# From MPEC 2022-YB4
86P/Wild,e,15.4955,72.0962,181.0495,3.648949,0.1414010,0.36191547,181.8966,08/10.0/2025,2000,g 11.0,6.0
# From MPEC 2020-SI8
87P/Bus,e,2.6653,184.7172,51.8429,4.366984,0.1080020,0.21518786,216.2354,08/10.0/2025,2000,g  7.2,10.0
# From MPC185663
88P/Howell,e,4.3820,56.6689,235.8792,3.108561,0.1798311,0.56324316,320.2960,08/10.0/2025,2000,g 11.0,6.0
# From MPC182887
89P/Russell,e,12.0705,41.3446,250.4395,3.751164,0.1356610,0.40740839,68.0203,08/10.0/2025,2000,g 11.5,6.0
# From MPEC 2022-K19
90P/Gehrels,e,9.6383,13.1821,29.1956,6.054425,0.0661599,0.51055149,196.4308,08/10.0/2025,2000,g  8.5,6.0
# From MPEC 2023-VM5
91P/Russell,e,16.1165,242.3163,357.1728,4.145815,0.1167587,0.25517426,223.2047,08/10.0/2025,2000,g  7.5,6.0
# From MPEC 2014-J58
92P/Sanguin,e,19.4779,181.3609,163.7775,5.344565,0.0797693,0.66001223,303.8088,08/10.0/2025,2000,g 12.0,6.0
# From MPEC 2025-PB3
93P/Lovas,e,12.2097,339.5500,75.0288,4.373778,0.1077504,0.61394155,331.3470,08/10.0/2025,2000,g  9.5,6.0
# From MPEC 2025-OF9
94P/Russell,e,6.1875,70.8464,92.3735,3.509915,0.1498853,0.36604478,121.6736,08/10.0/2025,2000,g  9.0,6.0
# From MPC182887
96P/Machholz,e,57.5886,93.9634,14.7371,3.031057,0.1867725,0.96171310,172.1351,08/10.0/2025,2000,g 13.0,4.8
# From MPC106348
96P-B/Machholz,e,57.5045,14.5714,94.0255,3.029996,0.1868706,0.96174379,172.2567,08/10.0/2025,2000,g 13.0,4.8
# From MPC103849
96P-C/Machholz,e,58.5311,94.3495,15.5380,3.011920,0.1885553,0.95889850,359.8715,07/14.0/2012,2000,g  9.0,4.0
# From MPEC 2024-GJ3
97P/Metcalf-Brewington,e,17.9369,184.0724,230.2060,4.770204,0.0946016,0.45989509,120.2435,08/10.0/2025,2000,g  5.5,6.0
# From MPEC 2021-W31
98P/Takamizawa,e,10.6771,114.4867,157.7566,3.778125,0.1342115,0.56826615,225.0126,08/10.0/2025,2000,g  9.0,8.0
# From MPEC 2024-R10
99P/Kowal,e,4.3391,28.0614,174.5254,6.093552,0.0655237,0.22879424,79.8754,08/10.0/2025,2000,g  4.5,6.0
# From MPEC 2025-OF9
100P/Hartley,e,25.5673,37.6857,181.9175,3.430339,0.1551310,0.41134276,170.0153,08/10.0/2025,2000,g  9.0,8.0
# From MPEC 2024-R10
101P/Chernykh,e,5.0485,116.1207,277.9905,5.817832,0.0702364,0.59552172,143.0067,08/10.0/2025,2000,g 10.0,4.8
# From MPC105241
101P-B/Chernykh,e,5.0503,278.5039,115.6107,5.833383,0.0699557,0.59573284,141.1923,08/10.0/2025,2000,g  9.0,4.0
# From MPEC 2022-C56
102P/Shoemaker,e,25.8529,339.3936,20.6742,3.820345,0.1319928,0.45594057,219.3231,08/10.0/2025,2000,g  6.5,8.0
# From MPC184417
103P/Hartley,e,13.6073,219.7576,181.3297,3.475769,0.1520995,0.69346888,101.5404,08/10.0/2025,2000,g  8.5,8.0
# From MPEC 2023-G31
104P/Kowal,e,5.7008,207.1803,227.3091,3.208625,0.1714848,0.66589820,223.8714,08/10.0/2025,2000,g 16.0,4.0
# From MPEC 2025-PB3
105P/SingerBrewster,e,9.1673,192.3922,46.3277,3.473028,0.1522796,0.40915114,30.3433,08/10.0/2025,2000,g 11.5,6.0
# From MPEC 2024-R10
106P/Schuster,e,19.5325,48.8660,353.7990,3.768396,0.1347316,0.59348826,195.6170,08/10.0/2025,2000,g 14.0,4.8
# From MPEC 2022-P82
108P/Ciffreo,e,11.4317,50.3014,354.5344,3.743920,0.1360549,0.55564350,194.5002,08/10.0/2025,2000,g  8.0,12.0
# From  105, 420
109P/Swift-Tuttle,e,113.0736,139.7343,153.2839,26.20154,0.0073488,0.96291897,87.6001,08/10.0/2025,2000,g  4.0,6.0
# From MPEC 2023-KD6
110P/Hartley,e,11.7117,287.4819,167.5670,3.603539,0.1440821,0.31924053,200.3182,08/10.0/2025,2000,g  1.0,12.0
# From MPC 75718
111P/Helin-Roman-Crockett,e,4.2261,89.8101,1.4537,4.152976,0.1164568,0.10717708,176.0768,08/10.0/2025,2000,g  5.0,8.0
# From MPEC 2021-S45
112P/Urata-Niijima,e,24.2020,31.8099,21.5571,3.522270,0.1490974,0.59083048,299.1965,08/10.0/2025,2000,g 14.0,6.0
# From MPEC 2024-JU4
113P/Spitaler,e,5.2877,306.6176,115.7454,3.696210,0.1386976,0.41963433,161.6083,08/10.0/2025,2000,g 13.5,4.0
# From MPEC 2023-A50
114P/Wiseman-Skiff,e,18.3039,271.0264,172.8165,3.539721,0.1479962,0.55614777,300.6599,08/10.0/2025,2000,g 11.5,6.0
# From MPEC 2023-J29
115P/Maury,e,11.6833,175.9697,120.9181,4.270833,0.1116697,0.51801138,205.5209,08/10.0/2025,2000,g 10.5,6.0
# From MPEC 2024-RQ6
116P/Wild,e,3.6047,20.9591,173.1542,3.485844,0.1514405,0.37075087,169.6471,08/10.0/2025,2000,g  2.5,10.0
# From MPC182887
117P/Helin-Roman-Alu,e,8.6736,58.8118,224.7903,4.119637,0.1178734,0.25206777,132.6193,08/10.0/2025,2000,g  2.5,8.0
# From MPEC 2025-OF9
118P/Shoemaker-Levy,e,10.0919,142.0519,314.9571,3.348981,0.1608181,0.45381506,159.0817,08/10.0/2025,2000,g 12.0,4.0
# From MPEC 2024-R10
119P/Parker-Hartley,e,7.3929,104.5417,322.2777,3.809470,0.1325584,0.38807413,144.9615,08/10.0/2025,2000,g  3.5,8.0
# From MPEC 2022-CN4
120P/Mueller,e,8.4809,358.7021,36.7896,3.970077,0.1245965,0.37409771,193.8087,08/10.0/2025,2000,g 12.0,4.0
# From MPC185663
121P/Shoemaker-Holt,e,20.1622,94.1045,11.9882,4.589645,0.1002387,0.18671495,77.2994,08/10.0/2025,2000,g  6.5,8.0
# From MPC 75718
122P/de Vico,e,86.0259,79.7414,13.0055,17.63403,0.0133100,0.96261480,145.1260,08/10.0/2025,2000,g  7.5,5.2
# From MPEC 2025-OF9
123P/West-Hartley,e,15.2886,45.8811,103.9565,3.884470,0.1287379,0.44452616,307.4510,08/10.0/2025,2000,g  4.0,10.0
# From MPEC 2024-UQ8
124P/Mrkos,e,31.4024,359.9765,185.1114,3.377457,0.1587886,0.48641188,309.5675,08/10.0/2025,2000,g 13.5,2.8
# From MPEC 2024-UA9
125P/Spacewatch,e,9.9859,153.1498,87.1041,3.127671,0.1781855,0.51197370,92.7975,08/10.0/2025,2000,g 13.0,6.0
# From MPEC 2024-JU4
126P/IRAS,e,45.8717,357.8569,356.5580,5.627116,0.0738372,0.69598617,56.6336,08/10.0/2025,2000,g  6.0,8.0
# From MPEC 2024-R10
127P/Holt-Olmstead,e,14.2947,13.6164,6.3405,3.454521,0.1535049,0.35869541,168.2494,08/10.0/2025,2000,g 11.0,6.0
# From MPC 89014
128P/Shoemaker-Holt,e,4.3711,214.3198,210.5051,4.481965,0.1038727,0.32235192,324.5985,08/10.0/2025,2000,g  8.5,4.0
# From MPC185664
129P/Shoemaker-Levy,e,3.4413,184.8473,307.9005,4.294158,0.1107610,0.08595160,108.5801,08/10.0/2025,2000,g 11.0,4.0
# From MPC184417
130P/McNaught-Hughes,e,6.0557,70.1727,246.4067,3.390443,0.1578772,0.46127301,76.0224,08/10.0/2025,2000,g 10.0,6.0
# From MPEC 2025-PB3
131P/Mueller,e,7.3619,214.1351,179.2508,3.674599,0.1399230,0.34472469,333.4637,08/10.0/2025,2000,g 11.0,4.0
# From MPEC 2024-BE0
132P/Helin-Roman-Alu,e,5.3774,173.9762,216.5134,3.892565,0.1283365,0.56396399,175.3217,08/10.0/2025,2000,g 11.0,6.0
# From MPC 89012
134P/Kowal-Vavrova,e,4.3328,201.9881,18.6457,6.274434,0.0627108,0.58550407,258.8916,08/10.0/2025,2000,g 11.5,4.0
# From MPEC 2024-C04
135P/Shoemaker-Levy,e,6.0626,213.0190,22.3652,3.801755,0.1329621,0.29338942,162.4968,08/10.0/2025,2000,g  7.0,8.0
# From MPEC 2025-OF9
136P/Mueller,e,9.4273,137.4174,225.3410,4.186388,0.1150654,0.29326175,25.1368,08/10.0/2025,2000,g 11.0,4.0
# From MPEC 2023-J29
137P/Shoemaker-Levy,e,4.8597,232.9275,141.2153,4.523846,0.1024336,0.57290934,248.9199,08/10.0/2025,2000,g 11.0,4.0
# From MPEC 2025-PB3
138P/Shoemaker-Levy,e,10.0982,309.2188,95.7449,3.616811,0.1432899,0.53153048,327.5736,08/10.0/2025,2000,g 15.0,6.0
# From MPEC 2020-HN5
139P/Vaisala-Oterma,e,2.3374,242.1790,165.9941,4.513321,0.1027921,0.24828770,286.8236,08/10.0/2025,2000,g  9.5,4.0
# From MPEC 2015-E14
140P/Bowell-Skiff,e,3.6906,343.3687,172.1499,6.413881,0.0606768,0.69508534,223.6361,08/10.0/2025,2000,g 11.5,6.0
# From MPEC 2024-R10
141P/Machholz,e,13.9615,241.7759,153.6448,3.056935,0.1844059,0.73587689,312.7957,08/10.0/2025,2000,g 12.0,12.0
# From MPEC 2015-KD9
141P-A/Machholz,e,13.9418,153.5008,241.9313,3.057168,0.1843848,0.73589530,312.7340,08/10.0/2025,2000,g 12.0,12.0
# From MPC 24216
141P-B/Machholz,e,13.9858,153.5769,241.8203,3.055533,0.1845328,0.73565639,314.1691,08/10.0/2025,2000,g  9.0,4.0
# From MPC 37026
141P-D/Machholz,e,13.8336,153.2264,242.1799,3.065697,0.1836159,0.73683931,308.2950,08/10.0/2025,2000,g  9.0,4.0
# From MPEC 2015-R12
141P-E/Machholz,e,12.8152,246.1856,149.2667,3.012914,0.1884620,0.75023267,359.9529,09/19.0/1994,2000,g  9.0,4.0
# From MPEC 2015-R12
141P-F/Machholz,e,12.7898,246.1881,149.2374,3.010224,0.1887147,0.75000946,359.9630,09/19.0/1994,2000,g  9.0,4.0
# From MPEC 2015-R12
141P-G/Machholz,e,12.8259,246.3146,149.0784,3.005818,0.1891298,0.74964304,359.9802,09/19.0/1994,2000,g  9.0,4.0
# From MPEC 2025-OF9
141P-H/Machholz,e,14.0175,241.8513,153.6187,3.046013,0.1853986,0.73462331,316.4736,08/10.0/2025,2000,g 18.5,4.0
# From MPEC 2022-SU8
141P-I/Machholz,e,13.9418,153.4557,241.9411,3.047628,0.1852512,0.73512410,314.3143,08/10.0/2025,2000,g 17.5,4.0
# From MPEC 2024-C04
142P/Ge-Wang,e,12.2444,175.9604,174.0590,5.003504,0.0880628,0.49589821,136.6640,08/10.0/2025,2000,g  8.5,6.0
# From MPC182888
143P/Kowal-Mrkos,e,5.4233,242.3429,304.4271,4.772951,0.0945200,0.38123440,312.3988,08/10.0/2025,2000,g 13.5,2.0
